0 SCOUT A R/B
1 01953U 66005B   13282.53101441  .00000096  00000-0  93020-4 0  8677
2 01953 090.2096 256.7523 0227215 245.2203 234.4792 13.64216238371393
0 SCOUT A R/B
1 01953U 66005B   13286.84660485  .00000063  00000-0  58307-4 0  8698
2 01953 090.2102 256.8456 0227513 232.3392 189.2030 13.64217122371984
0 SCOUT A R/B
1 01953U 66005B   13288.97441656  .00000072  00000-0  67604-4 0  8703
2 01953 090.2109 256.8915 0227684 225.9995 199.3042 13.64217447372275
0 SCOUT A R/B
1 01953U 66005B   13291.17364763  .00000082  00000-0  77187-4 0  8711
2 01953 090.2115 256.9392 0227882 219.4524 200.1577 13.64217561372572
0 SCOUT A R/B
1 01953U 66005B   13293.46630238  .00000101  00000-0  97205-4 0  8724
2 01953 090.2117 256.9892 0228104 212.6299 299.8311 13.64217775372883
0 SCOUT A R/B
1 01953U 66005B   13295.86840568  .00000113  00000-0  10990-3 0  8738
2 01953 090.2118 257.0419 0228355 205.4868 217.0249 13.64218206373211
